[{"OBJECT_NAME":"ESEO","OBJECT_ID":"2018-099AL","EPOCH":"2026-03-09T15:43:37.559712","MEAN_MOTION":15.03914518,"ECCENTRICITY":0.00110626,"INCLINATION":97.4113,"RA_OF_ASC_NODE":110.2601,"ARG_OF_PERICENTER":317.6,"MEAN_ANOMALY":42.4371,"EPHEMERIS_TYPE":0,"CLASSIFICATION_TYPE":"U","NORAD_CAT_ID":43792,"ELEMENT_SET_NO":999,"REV_AT_EPOCH":39684,"BSTAR":0.00020934561,"MEAN_MOTION_DOT":2.831e-5,"MEAN_MOTION_DDOT":0},{"OBJECT_NAME":"STARLINK-34654","OBJECT_ID":"2025-152S","EPOCH":"2026-03-09T20:00:42.388416","MEAN_MOTION":15.05650765,"ECCENTRICITY":0.00018125,"INCLINATION":97.6015,"RA_OF_ASC_NODE":285.7132,"ARG_OF_PERICENTER":90.5043,"MEAN_ANOMALY":269.6392,"EPHEMERIS_TYPE":0,"CLASSIFICATION_TYPE":"U","NORAD_CAT_ID":64858,"ELEMENT_SET_NO":999,"REV_AT_EPOCH":3544,"BSTAR":0.00020226638,"MEAN_MOTION_DOT":2.859e-5,"MEAN_MOTION_DDOT":0}]
